[{"OBJECT_NAME":"STARLINK-2346","OBJECT_ID":"2021-021AD","EPOCH":"2026-03-10T00:00:02.999808","MEAN_MOTION":15.23438347,"ECCENTRICITY":9.608e-5,"INCLINATION":53.1284,"RA_OF_ASC_NODE":279.4044,"ARG_OF_PERICENTER":111.4357,"MEAN_ANOMALY":162.0341,"EPHEMERIS_TYPE":0,"CLASSIFICATION_TYPE":"U","NORAD_CAT_ID":47887,"ELEMENT_SET_NO":999,"REV_AT_EPOCH":579,"BSTAR":0.037660031,"MEAN_MOTION_DOT":0.00987392,"MEAN_MOTION_DDOT":0},{"OBJECT_NAME":"CZ-6A DEB","OBJECT_ID":"2023-168D","EPOCH":"2026-03-09T19:03:52.964928","MEAN_MOTION":15.28240044,"ECCENTRICITY":0.00013417,"INCLINATION":97.7802,"RA_OF_ASC_NODE":98.3362,"ARG_OF_PERICENTER":174.0661,"MEAN_ANOMALY":186.0594,"EPHEMERIS_TYPE":0,"CLASSIFICATION_TYPE":"U","NORAD_CAT_ID":58202,"ELEMENT_SET_NO":999,"REV_AT_EPOCH":12922,"BSTAR":0.0014474773,"MEAN_MOTION_DOT":0.00039923,"MEAN_MOTION_DDOT":0}]
